STARLINK-1043
1 44748U 19074AM  26090.71150149  .00037303  00000+0  54835-3 0  9996
2 44748  53.0510  88.1290 0002636  92.3312 267.8000 15.55130385352074
STARLINK-1892
1 46743U 20074E   26090.83335647  .00128127  00000+0  18464-2 0  9998
2 46743  53.0444 186.8126 0001885  33.0411  86.8313 15.55112882  5947
